{
    "type": "FeatureCollection",
    "name": "modelle",
    "features": [
        {
            "type": "Feature",
            "properties": {
                "name": {
                    "de": "Backhaus",
                    "en": "Bakehouse"
                },
                "description": {
                    "de": "<h4>Der Duft von Brot und Feuer</h4><p>Mitten innerhalb der Burgbebauung der Horneburg befand sich ein Geb&auml;ude, das f&uuml;r den Alltag der Bewohner von zentraler Bedeutung gewesen sein d&uuml;rfte: das Backhaus der Burg. Der Bau ma&szlig; etwa 10,5 × 6,3 Meter und lag zwischen den Ganerbenh&auml;usern und dem m&auml;chtigen Wohnturm. Seine zentrale Position innerhalb der Anlage war ausgesprochen praktisch, denn dadurch konnte das Geb&auml;ude von allen Bereichen der Burg schnell erreicht werden.</p><p>Das Backhaus spielte eine entscheidende Rolle f&uuml;r die Versorgung der Burgbewohner. Hier wurde vermutlich Brot gebacken, aber wahrscheinlich auch gekocht und Speisen f&uuml;r den t&auml;glichen Bedarf zubereitet. Auf einer dicht bebauten Burganlage war eine eigene Versorgungseinrichtung unverzichtbar, insbesondere wenn zahlreiche Menschen innerhalb der Mauern lebten. Neben den adeligen Familien geh&ouml;rten dazu auch Bedienstete, Handwerker und weitere Bewohner der Burg.</p><p>Von besonderer Bedeutung d&uuml;rfte das Geb&auml;ude bei festlichen Anl&auml;ssen gewesen sein. Im gro&szlig;en Saal des zentralen Wohnturms fanden vermutlich Zusammenk&uuml;nfte, Beratungen und repr&auml;sentative Feierlichkeiten statt. Solche Veranstaltungen erforderten eine umfangreiche Bewirtung der G&auml;ste. Das nahegelegene Backhaus bot daf&uuml;r ideale Voraussetzungen, da Speisen und Brot ohne lange Wege vorbereitet und serviert werden konnten.</p><p>Die Lage des Geb&auml;udes zeigt zugleich, wie durchdacht die Horneburg organisiert war. Wohnbereiche, Wirtschaftsgeb&auml;ude und repr&auml;sentative R&auml;ume standen in enger funktionaler Verbindung zueinander. Das Backhaus war damit weit mehr als nur ein einfacher Zweckbau – es bildete einen wichtigen Bestandteil des t&auml;glichen und gesellschaftlichen Lebens auf der Burg.</p>"
                },
                "path": "/modelle/backhaus5.gltf",
                "svg_path": "/modelle/svg/backhaus.svg",
                "rotation": 91,
                "breite": 7.57,
                "tiefe": 10.6,
                "hoehe": 8.64,
                "show_in_list": true,
                "id": "backhaus5"
            },
            "geometry": {
                "type": "Point",
                "coordinates": [
                    9.587823408205654,
                    53.509437031679248
                ]
            }
        },
        {
            "type": "Feature",
            "properties": {
                "name": {
                    "de": "Ganerbenhaus 1",
                    "en": "Ganerben Building 1"
                },
                "description": {
                    "de": "<h4>Adliges Leben auf der Horneburg</h4><p>Zu den wichtigsten Geb&auml;uden der mittelalterlichen Burganlage von Horneburg geh&ouml;rten mehrere sogenannte Ganerbengeb&auml;ude. Als Ganerben bezeichnete man Angeh&ouml;rige verschiedener Ritterfamilien, die gemeinsam Eigent&uuml;mer einer Burg waren und dort eigene Wohn- und Wirtschaftsbereiche besa&szlig;en. Die Horneburg war somit keine einzelne Adelsresidenz, sondern ein gemeinschaftlich genutzter Herrensitz mehrerer Familien.</p><p>Eines dieser Geb&auml;ude konnte bei geophysikalischen Untersuchungen auf der Burginsel nachgewiesen werden. Der Bau besa&szlig; eine Gr&ouml;&szlig;e von mindestens 14,8 × 9,3 Metern und geh&ouml;rte damit zu den gr&ouml;&szlig;eren H&auml;usern innerhalb der Anlage. Seine genaue Ausdehnung l&auml;sst sich heute nicht mehr vollst&auml;ndig bestimmen, da nur die im Boden befindlichen Fundamente vermessen werden konnten. Dennoch vermitteln die erhaltenen Spuren einen guten Eindruck von seiner Bedeutung.</p><p>Wie die &uuml;brigen bekannten Ganerbenh&auml;user war auch dieses Geb&auml;ude radial um den zentralen Wohnturm angeordnet. Diese besondere Bauweise pr&auml;gte die gesamte Innenbebauung der Burg. Die H&auml;user orientierten sich f&auml;cherf&ouml;rmig auf den Mittelpunkt der Anlage und nutzten den begrenzten Raum auf der Burginsel m&ouml;glichst effizient. Gleichzeitig spiegelte die Anordnung die enge Verbindung der Burgbewohner untereinander wider.</p><p>Das Geb&auml;ude d&uuml;rfte einer der auf der Horneburg ans&auml;ssigen Ritterfamilien als Wohnsitz gedient haben. Vermutlich befanden sich im Inneren beheizbare Wohnr&auml;ume, Lagerfl&auml;chen und Bereiche f&uuml;r die Versorgung des Haushalts. Funde aus dem Umfeld des Hauses belegen, dass die Bewohner keineswegs einfach lebten. Die Ganerben geh&ouml;rten zum regionalen Adel und verf&uuml;gten &uuml;ber betr&auml;chtlichen Einfluss im Umland.</p><p>Heute sind oberirdisch keine Reste des Hauses mehr sichtbar. Erst die arch&auml;ologischen Untersuchungen machten die Grundstruktur des Geb&auml;udes wieder erkennbar und erlauben einen seltenen Einblick in das Leben auf der mittelalterlichen Horneburg.</p>"
                },
                "path": "/modelle/ganerben4.gltf",
                "svg_path": "/modelle/svg/ganerben1.svg",
                "rotation": 45,
                "breite": 16.7,
                "tiefe": 10.6,
                "hoehe": 15.8,
                "id": "ganerbenhaus4"
            },
            "geometry": {
                "type": "Point",
                "coordinates": [
                    9.587447527496442,
                    53.509351740126647
                ]
            }
        },
        {
            "type": "Feature",
            "properties": {
                "name": {
                    "de": "Ganerbenhäuser 2 und 3",
                    "en": "Ganerben Buildings 2 and 3"
                },
                "description": {
                    "de": "<h4>T&uuml;r an T&uuml;r in enger Gemeinschaft</h4><p>Unmittelbar &ouml;stlich des Ganerbenhauses 1 befand sich ein weiteres gro&szlig;es Ganerbengeb&auml;ude auf der Burginsel der Horneburg. Mit einer nachgewiesenen Gr&ouml;&szlig;e von etwa 14 × 10,9 Metern geh&ouml;rte auch dieser Bau zu den bedeutenden Wohngeb&auml;uden innerhalb der mittelalterlichen Burganlage. Seine Ausma&szlig;e zeigen, dass den hier lebenden Angeh&ouml;rigen des Niederadels ein repr&auml;sentativer und zugleich funktionaler Wohnsitz zur Verf&uuml;gung stand.</p><p>Die geophysikalischen Befunde verdeutlichen, dass das trapezf&ouml;rmige Geb&auml;ude Teil eines sorgf&auml;ltig geplanten Gesamtkonzeptes war. Wie die &uuml;brigen H&auml;user der Burg orientierte sich auch dieser Bau radial zum zentralen Wohnturm. Dadurch entstand auf der vergleichsweise kleinen Burginsel eine dicht strukturierte Bebauung, bei der die einzelnen H&auml;user wie die Speichen eines Rades angeordnet waren. Diese Bauform z&auml;hlt zu den auff&auml;lligen Merkmalen der Horneburg.</p><p>Das Haus diente wahrscheinlich einer weiteren Ritterfamilie als Wohn- und Verwaltungssitz. In einer solchen Burggemeinschaft besa&szlig; jede Familie eigene Geb&auml;ude und Wirtschaftsbereiche, w&auml;hrend wichtige Teile der Befestigung gemeinsam genutzt wurden. Das Leben auf der Burg erforderte daher nicht nur Verteidigungsbereitschaft, sondern auch ein enges Zusammenleben der adeligen Bewohner.</p><p>Vermutlich bestand das Geb&auml;ude aus einem h&ouml;lzernen oder teilweise steinernen Fachwerkbau mit mehreren R&auml;umen. Neben den Wohnbereichen d&uuml;rfte es Lagerm&ouml;glichkeiten f&uuml;r Vorr&auml;te, Waffen und Ausstattungsgegenst&auml;nde gegeben haben. Wahrscheinlich befand sich im Inneren auch eine Feuerstelle oder ein Ofen, um die R&auml;ume beheizen zu k&ouml;nnen.</p><p>Direkt an das Ganerbenhaus 2 anschlie&szlig;end stand ein weiterer gro&szlig;er Bau auf der Burginsel der Horneburg. Beide Geb&auml;ude lagen Wand an Wand und bildeten damit einen eng bebauten Abschnitt innerhalb der mittelalterlichen Burganlage. Das Haus besa&szlig; eine Gr&ouml;&szlig;e von etwa 14,75 × 8,75 Metern und weist in seinem Grundriss wie das direkt angrenzende Geb&auml;ude eine leicht trapezf&ouml;rmige Gestalt auf. Diese unregelm&auml;&szlig;ige Form d&uuml;rfte eine Anpassung an die begrenzten Platzverh&auml;ltnisse auf der Burginsel gewesen sein.</p><p>Die Bebauung der Horneburg war insgesamt bemerkenswert dicht. Mehrere adelige Familien teilten sich die Anlage und ben&ouml;tigten eigene Wohn- und Wirtschaftsgeb&auml;ude innerhalb des gesch&uuml;tzten Burgbereiches. Dadurch wurde jeder verf&uuml;gbare Raum genutzt. Das trapezf&ouml;rmige Haus zeigt anschaulich, wie flexibel die Bauherren auf die vorhandenen Gegebenheiten reagierten. Trotz der ungew&ouml;hnlichen Form f&uuml;gte sich das Geb&auml;ude in die radiale Anordnung der &uuml;brigen H&auml;user um den zentralen Wohnturm ein.</p><p>Wahrscheinlich handelte es sich auch bei diesem Bau um den Sitz einer Ganerbenfamilie. Die Bewohner geh&ouml;rten zum regionalen Niederadel und verwalteten von hier aus ihre Besitzungen und Rechte im Umland. Das Geb&auml;ude d&uuml;rfte zugleich Wohnhaus, Lagerraum und Mittelpunkt des t&auml;glichen Lebens gewesen sein. Im Inneren kann man sich mehrere unterschiedlich genutzte R&auml;ume vorstellen – von beheizbaren Wohnbereichen bis hin zu Vorrats- und Arbeitsr&auml;umen.</p><p>Die unmittelbare Nachbarschaft zum angrenzenden Ganerbenhaus verdeutlicht, wie eng die verschiedenen Familien innerhalb der Burg zusammenlebten. Gleichzeitig besa&szlig; jede Partei offenbar ihren klar abgegrenzten Bereich. Die Horneburg war damit nicht nur eine Befestigungsanlage, sondern auch ein komplexer Wohnort mit zahlreichen eigenst&auml;ndigen Haushalten.</p><p>Obwohl heute keine aufgehenden Mauern mehr erhalten sind, lassen sich die Standorte der Geb&auml;ude durch die arch&auml;ologischen Forschungen erstaunlich genau rekonstruieren. So entstand nach und nach ein lebendiges Bild der einst dicht bebauten Burganlage und ihrer Bewohner.</p>"
                },
                "path": "/modelle/ganerben6.gltf",
                "svg_path": "/modelle/svg/ganerben2.svg",
                "rotation": 5,
                "breite": 20.9,
                "tiefe": 18.7,
                "hoehe": 15.1,
                "id": "ganerbenhaus6"
            },
            "geometry": {
                "type": "Point",
                "coordinates": [
                    9.587671858368569,
                    53.50927765156365
                ]
            }
        },
        {
            "type": "Feature",
            "properties": {
                "name": {
                    "de": "Ganerbenhaus 4 mit zwei Wirtschaftsgebäuden",
                    "en": "Ganerben Building 4 with two Outbuildings"
                },
                "description": {
                    "de": "<h4>Ein ungew&ouml;hnliches Haus im Herzen der Burg</h4><p>Im &ouml;stlichen Bereich der Burginsel von Horneburg befand sich ein weiteres Ganerbenhaus, das sich in mehrfacher Hinsicht von den &uuml;brigen bekannten Geb&auml;uden der Anlage unterschied. Mit einer Gr&ouml;&szlig;e von etwa 12,4 × 10,9 Metern besa&szlig; es einen ann&auml;hernd quadratischen Grundriss und wich damit bereits deutlich von den l&auml;nglicheren Nachbarbauten ab. Noch auff&auml;lliger ist jedoch seine Lage innerhalb der Burg: Das Geb&auml;ude stand n&auml;her am zentralen Wohnturm als alle anderen bislang bekannten Ganerbenh&auml;user und folgt nicht der sonst typischen radialen Ausrichtung der Bebauung.</p><p>Diese Abweichung k&ouml;nnte darauf hindeuten, dass das Haus eine besondere Funktion oder Stellung innerhalb der Burggemeinschaft besa&szlig;. M&ouml;glicherweise geh&ouml;rte es einer besonders einflussreichen Familie oder entstand zu einer anderen Bauphase als die &uuml;brigen H&auml;user. Denkbar ist auch, dass der begrenzte Platz im Inneren der Burg eine individuelle Anpassung der Bauweise erforderlich machte.</p><p>Eine weitere Besonderheit stellen zwei kleinere Anbauten an der S&uuml;d- und Ostseite des Geb&auml;udes dar. Arch&auml;ologisch lassen sich diese Strukturen als Wirtschaftsbereiche deuten. Dort k&ouml;nnten Vorr&auml;te gelagert, handwerkliche Arbeiten ausgef&uuml;hrt oder Ger&auml;te und Materialien untergebracht worden sein. Die Anbauten zeigen, dass das Geb&auml;ude nicht allein Wohnzwecken diente, sondern zugleich Mittelpunkt allt&auml;glicher Arbeits- und Versorgungsabl&auml;ufe war.</p><p>Wie in den anderen Ganerbenh&auml;usern lebte hier vermutlich eine adelige Familie, die ihren Anteil an der Burg besa&szlig; und gemeinsam mit den &uuml;brigen Bewohnern f&uuml;r Schutz und Verwaltung der Anlage verantwortlich war. Die enge Verbindung von Wohnen, Arbeiten und Verteidigung pr&auml;gte das Leben auf der Horneburg &uuml;ber viele Generationen hinweg.</p><p>Obwohl heute nur noch die arch&auml;ologischen Spuren im Boden erhalten sind, vermitteln die Grundrisse der Geb&auml;ude ein erstaunlich detailliertes Bild der einstigen Burgbebauung. Gerade dieses ungew&ouml;hnlich gelegene Haus macht deutlich, dass die Horneburg kein starrer Baukomplex war, sondern sich &uuml;ber lange Zeitr&auml;ume immer wieder ver&auml;nderte und an neue Bed&uuml;rfnisse angepasst wurde.</p>"
                },
                "path": "/modelle/ganerben8.gltf",
                "svg_path": "/modelle/svg/ganerben3.svg",
                "rotation": 14,
                "breite": 19.9,
                "tiefe": 15.5,
                "hoehe": 12.8,
                "id": "ganerbenhaus8"
            },
            "geometry": {
                "type": "Point",
                "coordinates": [
                    9.587955086512867,
                    53.509484639378634
                ]
            }
        },
        {
            "type": "Feature",
            "properties": {
                "name": {
                    "de": "Wirtschaftsgebäude 1",
                    "en": "Outbuilding I"
                },
                "description": {
                    "de": "<h4>Der erste Halt auf der Burginsel</h4><p>Im Nordwesten der Burginsel von Horneburg befand sich ein langgestrecktes Wirtschaftsgeb&auml;ude mit einer Gr&ouml;&szlig;e von etwa 12,6 × 7 Metern. Seine Lage unmittelbar neben der Br&uuml;cke, die als einziger Zugang zur Burg diente, war sicher kein Zufall. Jeder, der die Anlage betrat oder verlie&szlig;, musste an diesem Geb&auml;ude vorbeikommen. Dadurch eignete sich der Bau besonders gut f&uuml;r T&auml;tigkeiten, die eng mit Versorgung, Transport und allt&auml;glichem Betrieb der Burg verbunden waren.</p><p>Wie die meisten anderen H&auml;user der Horneburg war auch dieses Geb&auml;ude radial zum zentralen Wohnturm ausgerichtet und f&uuml;gte sich damit in die charakteristische Struktur der Burgbebauung ein. Im Gegensatz zu den gr&ouml;&szlig;eren Ganerbenh&auml;usern d&uuml;rfte hier jedoch weniger gewohnt als gearbeitet worden sein. Denkbar ist die Nutzung durch Handwerker, die f&uuml;r das Funktionieren der Burg unverzichtbar waren. Wagner oder Stellmacher k&ouml;nnten hier Wagen repariert, Holzbauteile gefertigt oder Arbeitsger&auml;te instandgehalten haben.</p><p>Auch Lagerfl&auml;chen f&uuml;r Materialien und Vorr&auml;te sind vorstellbar. Die unmittelbare N&auml;he zum Zugang der Burg erleichterte Anlieferung und Transport erheblich. Das Geb&auml;ude war damit ein wichtiger Bestandteil der wirtschaftlichen Infrastruktur der Horneburg und zeigt, dass eine mittelalterliche Burg weit mehr war als nur ein milit&auml;rischer St&uuml;tzpunkt oder adeliger Wohnsitz.</p>"
                },
                "path": "/modelle/wohnhaus1.gltf",
                "svg_path": "/modelle/svg/wohnhaus1.svg",
                "rotation": 61,
                "breite": 8.23,
                "tiefe": 13.0,
                "hoehe": 7.19,
                "id": "wohnhaus1"
            },
            "geometry": {
                "type": "Point",
                "coordinates": [
                    9.587400854162548,
                    53.509697859773482
                ]
            }
        },
        {
            "type": "Feature",
            "properties": {
                "name": {
                    "de": "Wirtschaftsgebäude 2",
                    "en": "Outbuilding II"
                },
                "description": {
                    "de": "<h4>Wo repariert, gelagert und gearbeitet wurde</h4><p>S&uuml;dlich des Wirtschaftsgeb&auml;udes 1 konnte auf der Burginsel der Horneburg ein weiterer Bau gleicher Gr&ouml;&szlig;e nachgewiesen werden. Mit seinen Ma&szlig;en von etwa 12,6 × 7 Metern geh&ouml;rte er zu einer Reihe funktionaler Geb&auml;ude, die den t&auml;glichen Betrieb der Burg sicherstellten. Auch dieses Haus war radial zum zentralen Wohnturm angeordnet und folgte damit dem charakteristischen Aufbau der gesamten Anlage.</p><p>Die genaue Nutzung des Geb&auml;udes l&auml;sst sich heute zwar nicht mehr eindeutig bestimmen, doch spricht vieles f&uuml;r einen wirtschaftlichen oder handwerklichen Zweck. In unmittelbarer N&auml;he zum Zugang der Burg gelegen, d&uuml;rfte der Bau eng mit Versorgung und Arbeitsabl&auml;ufen innerhalb der Anlage verbunden gewesen sein. Denkbar sind Werkst&auml;tten f&uuml;r Holz- und Metallarbeiten, Lagerr&auml;ume oder Unterst&auml;nde f&uuml;r Ger&auml;te und Fahrzeuge.</p><p>Auf einer mittelalterlichen Burg waren zahlreiche handwerkliche T&auml;tigkeiten notwendig, um den Alltag der Bewohner aufrechtzuerhalten. Reparaturen an Wagen, Werkzeugen oder Bauteilen mussten direkt vor Ort ausgef&uuml;hrt werden. Solche Wirtschaftsgeb&auml;ude bildeten daher einen unverzichtbaren Bestandteil des Burglebens. Die arch&auml;ologischen Befunde zeigen eindrucksvoll, wie dicht bebaut und funktional organisiert die Horneburg einst gewesen ist.</p>"
                },
                "path": "/modelle/wohnhaus2.gltf",
                "svg_path": "/modelle/svg/wohnhaus2.svg",
                "rotation": 83,
                "breite": 8.23,
                "tiefe": 13.0,
                "hoehe": 7.19,
                "id": "wohnhaus2",
                "show_in_list": true
            },
            "geometry": {
                "type": "Point",
                "coordinates": [
                    9.587367497328545,
                    53.50959542011848
                ]
            }
        },
        {
            "type": "Feature",
            "properties": {
                "name": {
                    "de": "Wirtschaftsgebäude 3",
                    "en": "Outbuilding III"
                },
                "description": {
                    "de": "<h4>Arbeiten am Rand der Burg</h4><p>Ein weiteres Wirtschaftsgeb&auml;ude befand sich s&uuml;dlich der bereits bekannten Werk- und Lagerh&auml;user auf der Burginsel der Horneburg. Der Bau ma&szlig; etwa 10,2 × 7 Meter und war damit etwas kleiner als die benachbarten Geb&auml;ude. Dennoch geh&ouml;rte er eindeutig zu den funktionalen Bereichen der Burg, die f&uuml;r Versorgung, Handwerk und allt&auml;gliche Arbeiten ben&ouml;tigt wurden.</p><p>Auch dieses Haus orientierte sich grunds&auml;tzlich an der radialen Struktur der Burganlage. Auff&auml;llig ist jedoch seine Ausrichtung: Die L&auml;ngsseite verlief parallel zum Burggraben. Damit passte sich das Geb&auml;ude offenbar gezielt an die Randzone der Burginsel an und nutzte den vorhandenen Platz m&ouml;glichst effektiv aus. Die Anordnung zeigt, wie sorgf&auml;ltig die Bebauung der Horneburg geplant wurde, um selbst auf engem Raum unterschiedliche Funktionen unterzubringen.</p><p>&Uuml;ber die konkrete Nutzung l&auml;sst sich nur vermuten. Wahrscheinlich diente das Geb&auml;ude als Werkstatt, Lagerraum oder Unterstand f&uuml;r Arbeitsger&auml;te und Materialien. Gerade in den Randbereichen der Burg boten sich solche Bauten an, da dort weniger repr&auml;sentative Wohnfunktionen notwendig waren. M&ouml;glich ist auch, dass hier Vorr&auml;te gelagert wurden, die f&uuml;r die Versorgung der Burgbewohner ben&ouml;tigt wurden.</p><p>Die arch&auml;ologischen Spuren verdeutlichen, dass die Horneburg nicht nur aus Wohn- und Wehrbauten bestand. Erst das Zusammenspiel von Herrschaftsgeb&auml;uden, Handwerksbereichen und Wirtschaftsfl&auml;chen machte die Burg zu einem funktionierenden Lebens- und Arbeitsort.</p>"
                },
                "path": "/modelle/wohnhaus3.gltf",
                "svg_path": "/modelle/svg/wohnhaus3.svg",
                "rotation": 37,
                "breite": 8.23,
                "tiefe": 10.7,
                "hoehe": 7.19,
                "id": "wohnhaus3"
            },
            "geometry": {
                "type": "Point",
                "coordinates": [
                    9.587305429514403,
                    53.509469850594343
                ]
            }
        },
        {
            "type": "Feature",
            "properties": {
                "name": {
                    "de": "Wirtschaftsgebäude 4",
                    "en": "Outbuilding XII"
                },
                "description": {
                    "de": "<h4>Die vermutete Schmiede der Horneburg</h4><p>Etwas abseits der &uuml;brigen Bebauung lag im nord&ouml;stlichen Bereich der Burginsel von Horneburg ein weiteres Wirtschaftsgeb&auml;ude mit einer Gr&ouml;&szlig;e von etwa 12,7 × 5,4 Metern. Der langgestreckte Bau war mit seiner L&auml;ngsseite zum Burggraben ausgerichtet und nahm damit eine Randposition innerhalb der Anlage ein. Gerade diese vergleichsweise isolierte Lage k&ouml;nnte ein wichtiger Hinweis auf seine urspr&uuml;ngliche Funktion sein.</p><p>Arch&auml;ologisch l&auml;sst sich die Nutzung zwar nicht eindeutig belegen, doch spricht vieles daf&uuml;r, dass sich hier die Schmiede der Burg befunden haben k&ouml;nnte. Schmiedefeuer stellten auf mittelalterlichen Burgen stets ein erhebliches Risiko dar, besonders in dicht bebauten Anlagen mit zahlreichen Holzbauten. Deshalb wurden Schmieden h&auml;ufig etwas entfernt von den wichtigsten Wohngeb&auml;uden eingerichtet. Die Lage am Rand der Burginsel h&auml;tte daf&uuml;r ideale Voraussetzungen geboten.</p><p>Die Bedeutung eines Schmieds f&uuml;r das Leben auf einer Burg kann kaum &uuml;bersch&auml;tzt werden. Er fertigte Waffen, Beschl&auml;ge, Werkzeuge und Hufeisen an und war ebenso f&uuml;r Reparaturen zust&auml;ndig. Schwerter und Messer mussten gesch&auml;rft, besch&auml;digte R&uuml;stungsteile ausgebessert und Wagen oder T&uuml;ren mit eisernen Bauteilen versehen werden. Ohne handwerkliches K&ouml;nnen dieser Art h&auml;tte der Alltag auf der Burg kaum funktioniert.</p><p>Das Geb&auml;ude zeigt eindrucksvoll, dass die Horneburg nicht allein Wehranlage und Wohnsitz des Adels war, sondern zugleich ein Ort intensiver handwerklicher Arbeit. Hinter den Mauern arbeiteten Menschen, die mit ihren F&auml;higkeiten das Leben und die Verteidigung der Burg erst erm&ouml;glichten.</p>"
                },
                "path": "/modelle/wohnhaus12.gltf",
                "svg_path": "/modelle/svg/wohnhaus3.svg",
                "rotation": 217,
                "breite": 5.96,
                "tiefe": 12.9,
                "hoehe": 5.84,
                "id": "wohnhaus12"
            },
            "geometry": {
                "type": "Point",
                "coordinates": [
                    9.588071350283847,
                    53.509807744708411
                ]
            }
        },
        {
            "type": "Feature",
            "properties": {
                "name": {
                    "de": "Wohnturm",
                    "en": "Residential Tower"
                },
                "description": {
                    "de": "<h4>R&uuml;ckzugsort, Festsaal und Machtsymbol</h4><p>In der Mitte der Horneburger Burginsel erhob sich einst das bedeutendste Geb&auml;ude der gesamten Anlage: ein massiver Wohnturm, der zugleich Wehrbau und repr&auml;sentativer Mittelpunkt der Burg war. Seine zentrale Lage auf der Burginsel macht deutlich, welche herausgehobene Stellung dieser Bau innerhalb des Burgkomplexes einnahm. Fast alle &uuml;brigen Geb&auml;ude orientierten sich an ihm und gruppierten sich radial um den Turm. Dadurch entstand eine klar gegliederte Anlage, deren Aufbau auf den Zentralbau ausgerichtet war.</p><p>Der Turm besa&szlig; eine Grundfl&auml;che von etwa 14 × 10 Metern. Besonders bemerkenswert sind jedoch die au&szlig;ergew&ouml;hnlich starken Mauern beziehungsweise Fundamente mit einer Breite von rund 1,25 Metern. Solch massive Konstruktionen dienten nicht allein der Stabilit&auml;t, sondern waren ein deutlicher Hinweis auf die Wehrhaftigkeit des Geb&auml;udes. Wahrscheinlich handelte es sich um einen mehrgeschossigen und weithin sichtbaren Wohnturm, der im Verteidigungsfall als letzter R&uuml;ckzugsort der Burgbewohner dienen konnte.</p><p>Gleichzeitig war der Bau weit mehr als nur ein milit&auml;rischer Schutzraum. Im Inneren befand sich vermutlich ein gro&szlig;er repr&auml;sentativer Saal, der f&uuml;r Zusammenk&uuml;nfte der Ritterfamilien genutzt wurde. Hier d&uuml;rften Beratungen stattgefunden haben, Absprachen getroffen und G&auml;ste empfangen worden sein. Auch festliche Anl&auml;sse und gemeinsame Mahlzeiten lassen sich in einem solchen Raum gut vorstellen. Damit &uuml;bernahm der Turm zugleich Funktionen, wie sie sonst h&auml;ufig mit einem Palas verbunden werden – dem repr&auml;sentativen Hauptgeb&auml;ude einer Burg.</p><p>Die Verbindung von Wehrhaftigkeit und herrschaftlicher Repr&auml;sentation macht den Bau zu einem Schl&uuml;sselgeb&auml;ude f&uuml;r das Verst&auml;ndnis der Horneburg. Er war nicht nur architektonischer Mittelpunkt der Anlage, sondern vermutlich auch politisches und gesellschaftliches Zentrum des Burglebens. Obwohl oberirdisch l&auml;ngst verschwunden, erlauben die arch&auml;ologischen Befunde noch heute einen Eindruck von der einst eindrucksvollen Erscheinung dieses Bauwerks.</p>"
                },
                "path": "/modelle/wohnturm11.gltf",
                "svg_path": "/modelle/svg/wohnturm.svg",
                "rotation": 44,
                "breite": 11.9,
                "tiefe": 14.8,
                "hoehe": 18.8,
                "id": "wohnturm11"
            },
            "geometry": {
                "type": "Point",
                "coordinates": [
                    9.587754055647753,
                    53.509575538216957
                ]
            }
        }
    ]
}